[{"OBJECT_NAME":"STARLINK-11164 [DTC]","OBJECT_ID":"2024-118H","EPOCH":"2026-03-09T16:26:00.704832","MEAN_MOTION":15.69695362,"ECCENTRICITY":8.896e-5,"INCLINATION":53.1584,"RA_OF_ASC_NODE":221.2019,"ARG_OF_PERICENTER":92.0255,"MEAN_ANOMALY":268.0865,"EPHEMERIS_TYPE":0,"CLASSIFICATION_TYPE":"U","NORAD_CAT_ID":60120,"ELEMENT_SET_NO":999,"REV_AT_EPOCH":9799,"BSTAR":5.029583e-6,"MEAN_MOTION_DOT":2.1e-7,"MEAN_MOTION_DDOT":0},{"OBJECT_NAME":"H-2A R\/B","OBJECT_ID":"2024-176B","EPOCH":"2026-03-09T21:03:59.315040","MEAN_MOTION":15.71096114,"ECCENTRICITY":0.00080006,"INCLINATION":97.2628,"RA_OF_ASC_NODE":207.174,"ARG_OF_PERICENTER":279.669,"MEAN_ANOMALY":80.367,"EPHEMERIS_TYPE":0,"CLASSIFICATION_TYPE":"U","NORAD_CAT_ID":61440,"ELEMENT_SET_NO":999,"REV_AT_EPOCH":8169,"BSTAR":0.00086786138,"MEAN_MOTION_DOT":0.00110274,"MEAN_MOTION_DDOT":0}]
